NORAD_CAT_ID,OBJECT_NAME,OBJECT_TYPE,EPOCH,MEAN_MOTION,ECCENTRICITY,INCLINATION,RA_OF_ASC_NODE,ARG_OF_PERICENTER,MEAN_ANOMALY,BSTAR,MEAN_MOTION_DOT,MEAN_MOTION_DDOT,TLE_LINE0,TLE_LINE1,TLE_LINE2,SEMIMAJOR_AXIS,PERIOD,APOGEE,PERIGEE,DECAYED
53419.0,STARLINK-4476,PAYLOAD,2023-06-19 06:54:35,15.08839187,9.4e-05,53.2154,258.162,109.9808,250.1286,0.00021439,3.126e-05,0.0,0 STARLINK-4476,1 53419U 22097AH  23170.28791289  .00003126  00000-0  21439-3 0  9995,2 53419  53.2154 258.1620 0000940 109.9808 250.1286 15.08839187 48046,6917.883,95.438,540.398,539.098,0.0
53419.0,STARLINK-4476,PAYLOAD,2023-06-20 06:45:22,15.08835673,8.33e-05,53.2158,253.7022,100.3697,259.7389,-1.8028e-05,-5.75e-06,0.0,0 STARLINK-4476,1 53419U 22097AH  23171.28151349 -.00000575  00000-0 -18028-4 0  9991,2 53419  53.2158 253.7022 0000833 100.3697 259.7389 15.08835673 48190,6917.894,95.438,540.335,539.182,0.0
53419.0,STARLINK-4476,PAYLOAD,2023-06-21 11:22:19,15.08845815,0.0001005,53.2144,248.3482,90.5119,269.5988,0.00020069,2.908e-05,0.0,0 STARLINK-4476,1 53419U 22097AH  23172.47383173  .00002908  00000-0  20069-3 0  9992,2 53419  53.2144 248.3482 0001005  90.5119 269.5988 15.08845815 48379,6917.863,95.437,540.423,539.032,0.0
53419.0,STARLINK-4476,PAYLOAD,2023-06-22 09:37:43,15.08838748,0.0001062,53.215,244.1856,86.123,273.9883,0.00014062,1.951e-05,0.0,0 STARLINK-4476,1 53419U 22097AH  23173.40119653  .00001951  00000-0  14062-3 0  9999,2 53419  53.2150 244.1856 0001062  86.1230 273.9883 15.08838748 48519,6917.884,95.438,540.484,539.015,0.0
53419.0,STARLINK-4476,PAYLOAD,2023-06-23 11:03:53,15.08835718,9.73e-05,53.2147,239.4277,85.7625,274.3478,5.3785e-05,5.68e-06,0.0,0 STARLINK-4476,1 53419U 22097AH  23174.46103964  .00000568  00000-0  53785-4 0  9993,2 53419  53.2147 239.4277 0000973  85.7625 274.3478 15.08835718 48678,6917.893,95.438,540.432,539.085,0.0
53419.0,STARLINK-4476,PAYLOAD,2023-06-24 07:43:54,15.08843793,0.0001,53.2149,235.5615,81.2647,278.8459,0.00017845,2.554e-05,0.0,0 STARLINK-4476,1 53419U 22097AH  23175.32215615  .00002554  00000-0  17845-3 0  9999,2 53419  53.2149 235.5615 0001000  81.2647 278.8459 15.08843793 48805,6917.869,95.437,540.426,539.042,0.0
53419.0,STARLINK-4476,PAYLOAD,2023-06-25 02:48:32,15.08839419,9.63e-05,53.215,231.9935,82.1053,278.0048,9.9278e-05,1.293e-05,0.0,0 STARLINK-4476,1 53419U 22097AH  23176.11703806  .00001293  00000-0  99278-4 0  9991,2 53419  53.2150 231.9935 0000963  82.1053 278.0048 15.08839419 48929,6917.882,95.438,540.413,539.081,0.0
53419.0,STARLINK-4476,PAYLOAD,2023-06-25 15:31:36,15.08850275,0.0001009,53.2149,229.6145,80.8696,279.241,0.00023264,3.418e-05,0.0,0 STARLINK-4476,1 53419U 22097AH  23176.64695245  .00003418  00000-0  23264-3 0  9998,2 53419  53.2149 229.6145 0001009  80.8696 279.2410 15.08850275 49003,6917.849,95.437,540.412,539.016,0.0
53419.0,STARLINK-4476,PAYLOAD,2023-06-25 20:17:46,15.08835597,8.51e-05,53.2145,228.7218,87.4878,272.6211,-0.00010635,-1.98e-05,0.0,0 STARLINK-4476,1 53419U 22097AH  23176.84567642 -.00001980  00000-0 -10635-3 0  9991,2 53419  53.2145 228.7218 0000851  87.4878 272.6211 15.08835597 49038,6917.894,95.438,540.348,539.17,0.0
53419.0,STARLINK-4476,PAYLOAD,2023-06-27 10:27:02,15.08838385,9.68e-05,53.2143,221.5848,87.0237,273.0866,0.00026839,3.986e-05,0.0,0 STARLINK-4476,1 53419U 22097AH  23178.43544171  .00003986  00000-0  26839-3 0  9999,2 53419  53.2143 221.5848 0000968  87.0237 273.0866 15.08838385 49275,6917.885,95.438,540.42,539.081,0.0
53419.0,STARLINK-4476,PAYLOAD,2023-06-28 15:03:58,15.08845404,9.86e-05,53.2144,216.232,84.1839,275.9265,0.00023613,3.473e-05,0.0,0 STARLINK-4476,1 53419U 22097AH  23179.62776056  .00003473  00000-0  23613-3 0  9998,2 53419  53.2144 216.2320 0000986  84.1839 275.9265 15.08845404 49452,6917.864,95.437,540.411,539.047,0.0
53419.0,STARLINK-4476,PAYLOAD,2023-06-29 03:47:03,15.0884121,0.0001005,53.2143,213.8533,84.8038,275.3069,0.00014455,2.014e-05,0.0,0 STARLINK-4476,1 53419U 22097AH  23180.15768294  .00002014  00000-0  14455-3 0  9997,2 53419  53.2143 213.8533 0001005  84.8038 275.3069 15.08841210 49537,6917.877,95.437,540.437,539.046,0.0
53419.0,STARLINK-4476,PAYLOAD,2023-06-30 22:42:28,15.08838217,9.88e-05,53.2139,205.8237,87.6985,272.4121,1.5942e-05,-3.4e-07,0.0,0 STARLINK-4476,1 53419U 22097AH  23181.94616197 -.00000034  00000-0  15942-4 0  9993,2 53419  53.2139 205.8237 0000988  87.6985 272.4121 15.08838217 49805,6917.886,95.438,540.434,539.067,0.0
53419.0,STARLINK-4476,PAYLOAD,2023-07-02 01:44:02,15.08837084,9.69e-05,53.215,200.7685,84.9034,275.2069,-6.3138e-07,-2.98e-06,0.0,0 STARLINK-4476,1 53419U 22097AH  23183.07224556 -.00000298  00000-0 -63138-6 0  9998,2 53419  53.2150 200.7685 0000969  84.9034 275.2069 15.08837084 49974,6917.889,95.438,540.425,539.084,0.0
53419.0,STARLINK-4476,PAYLOAD,2023-07-03 07:56:21,15.08836429,9.32e-05,53.2154,195.1187,83.3666,276.7432,0.00010203,1.336e-05,0.0,0 STARLINK-4476,1 53419U 22097AH  23184.33080577  .00001336  00000-0  10203-3 0  9995,2 53419  53.2154 195.1187 0000932  83.3666 276.7432 15.08836429 50161,6917.891,95.438,540.401,539.112,0.0
53419.0,STARLINK-4476,PAYLOAD,2023-07-04 22:05:37,15.08839274,9.52e-05,53.2159,187.9818,84.5776,275.5325,5.0504e-05,5.16e-06,0.0,0 STARLINK-4476,1 53419U 22097AH  23185.92056837  .00000516  00000-0  50504-4 0  9991,2 53419  53.2159 187.9818 0000952  84.5776 275.5325 15.08839274 50409,6917.883,95.438,540.406,539.089,0.0
53419.0,STARLINK-4476,PAYLOAD,2023-07-06 01:07:10,15.08839551,9.79e-05,53.2163,182.9273,85.9927,274.1177,4.1578e-05,3.74e-06,0.0,0 STARLINK-4476,1 53419U 22097AH  23187.04664854  .00000374  00000-0  41578-4 0  9993,2 53419  53.2163 182.9273 0000979  85.9927 274.1177 15.08839551 50572,6917.882,95.438,540.424,539.07,0.0
53419.0,STARLINK-4476,PAYLOAD,2023-07-07 08:54:52,15.08845249,0.0001026,53.2162,176.9801,80.9176,279.1933,8.1437e-05,1.009e-05,0.0,0 STARLINK-4476,1 53419U 22097AH  23188.37144368  .00001009  00000-0  81437-4 0  9997,2 53419  53.2162 176.9801 0001026  80.9176 279.1933 15.08845249 50774,6917.864,95.437,540.439,539.02,0.0
53419.0,STARLINK-4476,PAYLOAD,2023-07-08 08:45:40,15.0884145,0.0001065,53.2166,172.5181,89.8047,270.3067,4.5093e-05,4.3e-06,0.0,0 STARLINK-4476,1 53419U 22097AH  23189.36504632  .00000430  00000-0  45093-4 0  9996,2 53419  53.2166 172.5181 0001065  89.8047 270.3067 15.08841450 50927,6917.876,95.437,540.478,539.004,0.0
53419.0,STARLINK-4476,PAYLOAD,2023-07-09 10:11:50,15.08840642,0.0001169,53.2176,167.7609,89.6915,270.4211,1.7325e-05,-1.2e-07,0.0,0 STARLINK-4476,1 53419U 22097AH  23190.42488747 -.00000012  00000-0  17325-4 0  9997,2 53419  53.2176 167.7609 0001169  89.6915 270.4211 15.08840642 51088,6917.878,95.438,540.552,538.935,0.0
53419.0,STARLINK-4476,PAYLOAD,2023-07-10 14:48:47,15.08835739,0.0001157,53.2175,162.4091,88.1804,271.9321,1.0341e-05,-1.23e-06,0.0,0 STARLINK-4476,1 53419U 22097AH  23191.61721365 -.00000123  00000-0  10341-4 0  9999,2 53419  53.2175 162.4091 0001157  88.1804 271.9321 15.08835739 51261,6917.893,95.438,540.559,538.958,0.0
53419.0,STARLINK-4476,PAYLOAD,2023-07-11 00:21:06,15.08799818,0.0001322,53.2173,160.6254,90.5598,269.5546,0.000422,6.427e-05,0.0,0 STARLINK-4476,1 53419U 22097AH  23192.01465922  .00006427  00000-0  42200-3 0  9998,2 53419  53.2173 160.6254 0001322  90.5598 269.5546 15.08799818 51327,6918.003,95.44,540.783,538.954,0.0
53419.0,STARLINK-4476,PAYLOAD,2023-07-11 08:18:01,15.08838779,0.0001128,53.2172,159.1389,91.3046,268.8076,3.1373e-05,2.12e-06,0.0,0 STARLINK-4476,1 53419U 22097AH  23192.34585364  .00000212  00000-0  31373-4 0  9993,2 53419  53.2172 159.1389 0001128  91.3046 268.8076 15.08838779 51374,6917.884,95.438,540.529,538.969,0.0
53419.0,STARLINK-4476,PAYLOAD,2023-07-12 14:30:21,15.08836903,0.0001407,53.218,153.4902,94.5337,265.5816,4.318e-05,3.99e-06,0.0,0 STARLINK-4476,1 53419U 22097AH  23193.60441734  .00000399  00000-0  43180-4 0  9990,2 53419  53.2180 153.4902 0001407  94.5337 265.5816 15.08836903 51563,6917.89,95.438,540.728,538.782,0.0
53419.0,STARLINK-4476,PAYLOAD,2023-07-13 09:34:58,15.08843832,0.0001211,53.2176,149.9201,89.5837,270.5293,6.8763e-05,8.07e-06,0.0,0 STARLINK-4476,1 53419U 22097AH  23194.39929239  .00000807  00000-0  68763-4 0  9996,2 53419  53.2176 149.9201 0001211  89.5837 270.5293 15.08843832 51689,6917.869,95.437,540.571,538.896,0.0
53419.0,STARLINK-4476,PAYLOAD,2023-07-14 06:15:00,15.08838058,0.0001351,53.2174,146.0542,94.9618,265.1528,-2.8731e-06,-3.34e-06,0.0,0 STARLINK-4476,1 53419U 22097AH  23195.26042145 -.00000334  00000-0 -28731-5 0  9994,2 53419  53.2174 146.0542 0001351  94.9618 265.1528 15.08838058 51815,6917.886,95.438,540.686,538.817,0.0
53419.0,STARLINK-4476,PAYLOAD,2023-07-15 02:54:59,15.08850896,0.0001193,53.2172,142.1883,94.527,265.5858,0.00016655,2.365e-05,0.0,0 STARLINK-4476,1 53419U 22097AH  23196.12152776  .00002365  00000-0  16655-3 0  9996,2 53419  53.2172 142.1883 0001193  94.5270 265.5858 15.08850896 51940,6917.847,95.437,540.537,538.887,0.0
53419.0,STARLINK-4476,PAYLOAD,2023-07-15 06:05:45,15.08858933,0.0001231,53.2174,141.5935,92.1376,267.9757,0.00018368,2.638e-05,0.0,0 STARLINK-4476,1 53419U 22097AH  23196.25400284  .00002638  00000-0  18368-3 0  9996,2 53419  53.2174 141.5935 0001231  92.1376 267.9757 15.08858933 51963,6917.823,95.436,540.539,538.836,0.0
53419.0,STARLINK-4476,PAYLOAD,2023-07-16 02:45:48,15.08836596,0.0001316,53.2161,137.729,81.9176,278.1965,3.3334e-05,2.43e-06,0.0,0 STARLINK-4476,1 53419U 22097AH  23197.11514319  .00000243  00000-0  33334-4 0  9998,2 53419  53.2161 137.7290 0001316  81.9176 278.1965 15.08836596 52099,6917.891,95.438,540.666,538.845,0.0
53419.0,STARLINK-4476,PAYLOAD,2023-07-17 12:08:53,15.08845726,0.0001249,53.2162,131.4828,77.0452,283.068,0.00017781,2.544e-05,0.0,0 STARLINK-4476,1 53419U 22097AH  23198.50617946  .00002544  00000-0  17781-3 0  9995,2 53419  53.2162 131.4828 0001249  77.0452 283.0680 15.08845726 52304,6917.863,95.437,540.592,538.864,0.0
